[{"OBJECT_NAME":"STARLINK-31538","OBJECT_ID":"2024-073Q","EPOCH":"2026-03-09T01:46:13.185408","MEAN_MOTION":15.2758695,"ECCENTRICITY":0.00011192,"INCLINATION":43.0023,"RA_OF_ASC_NODE":321.3062,"ARG_OF_PERICENTER":234.5052,"MEAN_ANOMALY":125.5695,"EPHEMERIS_TYPE":0,"CLASSIFICATION_TYPE":"U","NORAD_CAT_ID":59525,"ELEMENT_SET_NO":999,"REV_AT_EPOCH":10608,"BSTAR":3.147981e-5,"MEAN_MOTION_DOT":6.04e-6,"MEAN_MOTION_DDOT":0},{"OBJECT_NAME":"TRANSPORTER-12 OBJECT BA","OBJECT_ID":"2025-009BA","EPOCH":"2026-03-09T16:49:42.568896","MEAN_MOTION":15.27214003,"ECCENTRICITY":4.03e-5,"INCLINATION":97.3985,"RA_OF_ASC_NODE":151.139,"ARG_OF_PERICENTER":234.6623,"MEAN_ANOMALY":125.4579,"EPHEMERIS_TYPE":0,"CLASSIFICATION_TYPE":"U","NORAD_CAT_ID":62657,"ELEMENT_SET_NO":999,"REV_AT_EPOCH":6373,"BSTAR":0.00042732654,"MEAN_MOTION_DOT":0.0001133,"MEAN_MOTION_DDOT":0}]
