STARLINK-31538          
1 59525U 24073Q   26068.07376372  .00000604  00000+0  31480-4 0  9998
2 59525  43.0023 321.3062 0001119 234.5052 125.5695 15.27586950106086
TRANSPORTER-12 OBJECT BA
1 62657U 25009BA  26068.70118713  .00011330  00000+0  42733-3 0  9991
2 62657  97.3985 151.1390 0000403 234.6623 125.4579 15.27214003 63739
